{"type": "FeatureCollection", "features": [ {"type": "Feature", "properties": {"norad_id": 66563, "name": "STARLINK-35437", "group": "last-30-days", "lat": -41.42402240133542, "lon": 59.57432545726342, "alt_km": 361.1957625706518, "timestamp": "2025-12-04T17:48:38.964035+00:00", "meta": {"OBJECT_NAME": "STARLINK-35437", "OBJECT_ID": "2025-268G", "EPOCH": "2025-12-04T08:00:01.999872", "MEAN_MOTION": 15.71623802, "ECCENTRICITY": 0.0001554, "INCLINATION": 42.9992, "RA_OF_ASC_NODE": 170.7883, "ARG_OF_PERICENTER": 274.3827, "MEAN_ANOMALY": 187.4026, "EPHEMERIS_TYPE": 0, "CLASSIFICATION_TYPE": "U", "NORAD_CAT_ID": 66563, "ELEMENT_SET_NO": 999, "REV_AT_EPOCH": 331, "BSTAR": -0.016402885, "MEAN_MOTION_DOT": -0.01928703, "MEAN_MOTION_DDOT": 0}, "tle": {"line1": "1 66563U 25268G   25338.33335648 -.01928703  00000+0 -16403-1 0  9991", "line2": "2 66563  42.9992 170.7883 0001554 274.3827 187.4026 15.71623802  3315"}}, "geometry": {"type": "Point", "coordinates": [59.57432545726342, -41.42402240133542]}}, {"type": "Feature", "properties": {"norad_id": 66564, "name": "STARLINK-35358", "group": "last-30-days", "lat": -41.81676952132488, "lon": 62.07951122723499, "alt_km": 361.1967671689108, "timestamp": "2025-12-04T17:48:38.964044+00:00", "meta": {"OBJECT_NAME": "STARLINK-35358", "OBJECT_ID": "2025-268H", "EPOCH": "2025-12-04T08:00:01.999872", "MEAN_MOTION": 15.71622858, "ECCENTRICITY": 0.00015225, "INCLINATION": 42.9991, "RA_OF_ASC_NODE": 170.7837, "ARG_OF_PERICENTER": 271.2077, "MEAN_ANOMALY": 192.4962, "EPHEMERIS_TYPE": 0, "CLASSIFICATION_TYPE": "U", "NORAD_CAT_ID": 66564, "ELEMENT_SET_NO": 999, "REV_AT_EPOCH": 326, "BSTAR": -0.016398559, "MEAN_MOTION_DOT": -0.01928159, "MEAN_MOTION_DDOT": 0}, "tle": {"line1": "1 66564U 25268H   25338.33335648 -.01928159  00000+0 -16399-1 0  9991", "line2": "2 66564  42.9991 170.7837 0001522 271.2077 192.4962 15.71622858  3261"}}, "geometry": {"type": "Point", "coordinates": [62.07951122723499, -41.81676952132488]}}, {"type": "Feature", "properties": {"norad_id": 66565, "name": "STARLINK-35893", "group": "last-30-days", "lat": -42.153922021281616, "lon": 64.60960405787775, "alt_km": 361.13383989293834, "timestamp": "2025-12-04T17:48:38.964054+00:00", "meta": {"OBJECT_NAME": "STARLINK-35893", "OBJECT_ID": "2025-268J", "EPOCH": "2025-12-04T08:00:01.999872", "MEAN_MOTION": 15.71617323, "ECCENTRICITY": 0.00016089, "INCLINATION": 42.9991, "RA_OF_ASC_NODE": 170.7787, "ARG_OF_PERICENTER": 269.9405, "MEAN_ANOMALY": 195.6829, "EPHEMERIS_TYPE": 0, "CLASSIFICATION_TYPE": "U", "NORAD_CAT_ID": 66565, "ELEMENT_SET_NO": 999, "REV_AT_EPOCH": 331, "BSTAR": -0.016337765, "MEAN_MOTION_DOT": -0.01921486, "MEAN_MOTION_DDOT": 0}, "tle": {"line1": "1 66565U 25268J   25338.33335648 -.01921486  00000+0 -16338-1 0  9991", "line2": "2 66565  42.9991 170.7787 0001608 269.9405 195.6829 15.71617323  3314"}}, "geometry": {"type": "Point", "coordinates": [64.60960405787775, -42.153922021281616]}}, {"type": "Feature", "properties": {"norad_id": 66566, "name": "STARLINK-35871", "group": "last-30-days", "lat": -42.434844465827524, "lon": 67.1652679912673, "alt_km": 361.1355502522383, "timestamp": "2025-12-04T17:48:38.964064+00:00", "meta": {"OBJECT_NAME": "STARLINK-35871", "OBJECT_ID": "2025-268K", "EPOCH": "2025-12-04T08:00:01.999872", "MEAN_MOTION": 15.71615747, "ECCENTRICITY": 0.00016104, "INCLINATION": 42.9992, "RA_OF_ASC_NODE": 170.774, "ARG_OF_PERICENTER": 269.597, "MEAN_ANOMALY": 197.9445, "EPHEMERIS_TYPE": 0, "CLASSIFICATION_TYPE": "U", "NORAD_CAT_ID": 66566, "ELEMENT_SET_NO": 999, "REV_AT_EPOCH": 331, "BSTAR": -0.016326805, "MEAN_MOTION_DOT": -0.0192023, "MEAN_MOTION_DDOT": 0}, "tle": {"line1": "1 66566U 25268K   25338.33335648 -.01920230  00000+0 -16327-1 0  9996", "line2": "2 66566  42.9992 170.7740 0001610 269.5970 197.9445 15.71615747  3318"}}, "geometry": {"type": "Point", "coordinates": [67.1652679912673, -42.434844465827524]}}, {"type": "Feature", "properties": {"norad_id": 66567, "name": "STARLINK-35825", "group": "last-30-days", "lat": -42.65818910654454, "lon": 69.74270271024389, "alt_km": 361.2528004647829, "timestamp": "2025-12-04T17:48:38.964076+00:00", "meta": {"OBJECT_NAME": "STARLINK-35825", "OBJECT_ID": "2025-268L", "EPOCH": "2025-12-04T08:00:01.999872", "MEAN_MOTION": 15.71622616, "ECCENTRICITY": 0.00014566, "INCLINATION": 42.9991, "RA_OF_ASC_NODE": 170.7694, "ARG_OF_PERICENTER": 271.818, "MEAN_ANOMALY": 197.6374, "EPHEMERIS_TYPE": 0, "CLASSIFICATION_TYPE": "U", "NORAD_CAT_ID": 66567, "ELEMENT_SET_NO": 999, "REV_AT_EPOCH": 331, "BSTAR": -0.016400412, "MEAN_MOTION_DOT": -0.01928283, "MEAN_MOTION_DDOT": 0}, "tle": {"line1": "1 66567U 25268L   25338.33335648 -.01928283  00000+0 -16400-1 0  9995", "line2": "2 66567  42.9991 170.7694 0001456 271.8180 197.6374 15.71622616  3314"}}, "geometry": {"type": "Point", "coordinates": [69.74270271024389, -42.65818910654454]}}, {"type": "Feature", "properties": {"norad_id": 66568, "name": "STARLINK-35803", "group": "last-30-days", "lat": -42.82314029101654, "lon": 72.3332000731577, "alt_km": 361.34883556357, "timestamp": "2025-12-04T17:48:38.964086+00:00", "meta": {"OBJECT_NAME": "STARLINK-35803", "OBJECT_ID": "2025-268M", "EPOCH": "2025-12-04T08:00:01.999872", "MEAN_MOTION": 15.71622741, "ECCENTRICITY": 0.00013296, "INCLINATION": 42.9991, "RA_OF_ASC_NODE": 170.7641, "ARG_OF_PERICENTER": 274.7992, "MEAN_ANOMALY": 196.5724, "EPHEMERIS_TYPE": 0, "CLASSIFICATION_TYPE": "U", "NORAD_CAT_ID": 66568, "ELEMENT_SET_NO": 999, "REV_AT_EPOCH": 331, "BSTAR": -0.016394839, "MEAN_MOTION_DOT": -0.01927614, "MEAN_MOTION_DDOT": 0}, "tle": {"line1": "1 66568U 25268M   25338.33335648 -.01927614  00000+0 -16395-1 0  9996", "line2": "2 66568  42.9991 170.7641 0001329 274.7992 196.5724 15.71622741  3315"}}, "geometry": {"type": "Point", "coordinates": [72.3332000731577, -42.82314029101654]}}, {"type": "Feature", "properties": {"norad_id": 66569, "name": "STARLINK-35835", "group": "last-30-days", "lat": -42.92931461280252, "lon": 74.94025819745553, "alt_km": 361.2759250751669, "timestamp": "2025-12-04T17:48:38.964097+00:00", "meta": {"OBJECT_NAME": "STARLINK-35835", "OBJECT_ID": "2025-268N", "EPOCH": "2025-12-04T08:00:01.999872", "MEAN_MOTION": 15.71624075, "ECCENTRICITY": 0.00014203, "INCLINATION": 42.9991, "RA_OF_ASC_NODE": 170.7595, "ARG_OF_PERICENTER": 269.9788, "MEAN_ANOMALY": 203.3098, "EPHEMERIS_TYPE": 0, "CLASSIFICATION_TYPE": "U", "NORAD_CAT_ID": 66569, "ELEMENT_SET_NO": 999, "REV_AT_EPOCH": 331, "BSTAR": -0.016414934, "MEAN_MOTION_DOT": -0.01929874, "MEAN_MOTION_DDOT": 0}, "tle": {"line1": "1 66569U 25268N   25338.33335648 -.01929874  00000+0 -16415-1 0  9990", "line2": "2 66569  42.9991 170.7595 0001420 269.9788 203.3098 15.71624075  3318"}}, "geometry": {"type": "Point", "coordinates": [74.94025819745553, -42.92931461280252]}}, {"type": "Feature", "properties": {"norad_id": 66570, "name": "STARLINK-35834", "group": "last-30-days", "lat": -42.97591687740131, "lon": 77.54702991608082, "alt_km": 361.1980377298796, "timestamp": "2025-12-04T17:48:38.964108+00:00", "meta": {"OBJECT_NAME": "STARLINK-35834", "OBJECT_ID": "2025-268P", "EPOCH": "2025-12-04T08:00:01.999872", "MEAN_MOTION": 15.71608426, "ECCENTRICITY": 0.00015451, "INCLINATION": 42.9991, "RA_OF_ASC_NODE": 170.7542, "ARG_OF_PERICENTER": 273.4322, "MEAN_ANOMALY": 201.7849, "EPHEMERIS_TYPE": 0, "CLASSIFICATION_TYPE": "U", "NORAD_CAT_ID": 66570, "ELEMENT_SET_NO": 999, "REV_AT_EPOCH": 331, "BSTAR": -0.016280299, "MEAN_MOTION_DOT": -0.01914796, "MEAN_MOTION_DDOT": 0}, "tle": {"line1": "1 66570U 25268P   25338.33335648 -.01914796  00000+0 -16280-1 0  9999", "line2": "2 66570  42.9991 170.7542 0001545 273.4322 201.7849 15.71608426  3312"}}, "geometry": {"type": "Point", "coordinates": [77.54702991608082, -42.97591687740131]}}, {"type": "Feature", "properties": {"norad_id": 66571, "name": "STARLINK-35836", "group": "last-30-days", "lat": -42.96295896896136, "lon": 80.15726833970623, "alt_km": 361.22978144629815, "timestamp": "2025-12-04T17:48:38.964118+00:00", "meta": {"OBJECT_NAME": "STARLINK-35836", "OBJECT_ID": "2025-268Q", "EPOCH": "2025-12-04T08:00:01.999872", "MEAN_MOTION": 15.71621419, "ECCENTRICITY": 0.00014902, "INCLINATION": 42.999, "RA_OF_ASC_NODE": 170.7499, "ARG_OF_PERICENTER": 275.7569, "MEAN_ANOMALY": 201.3659, "EPHEMERIS_TYPE": 0, "CLASSIFICATION_TYPE": "U", "NORAD_CAT_ID": 66571, "ELEMENT_SET_NO": 999, "REV_AT_EPOCH": 331, "BSTAR": -0.016383497, "MEAN_MOTION_DOT": -0.01926459, "MEAN_MOTION_DDOT": 0}, "tle": {"line1": "1 66571U 25268Q   25338.33335648 -.01926459  00000+0 -16383-1 0  9993", "line2": "2 66571  42.9990 170.7499 0001490 275.7569 201.3659 15.71621419  3312"}}, "geometry": {"type": "Point", "coordinates": [80.15726833970623, -42.96295896896136]}}, {"type": "Feature", "properties": {"norad_id": 66572, "name": "STARLINK-35870", "group": "last-30-days", "lat": -42.89025921021568, "lon": 82.77154719239684, "alt_km": 361.1964283938005, "timestamp": "2025-12-04T17:48:38.964129+00:00", "meta": {"OBJECT_NAME": "STARLINK-35870", "OBJECT_ID": "2025-268R", "EPOCH": "2025-12-04T08:00:01.999872", "MEAN_MOTION": 15.71610464, "ECCENTRICITY": 0.00015496, "INCLINATION": 42.9989, "RA_OF_ASC_NODE": 170.7455, "ARG_OF_PERICENTER": 267.8851, "MEAN_ANOMALY": 211.1654, "EPHEMERIS_TYPE": 0, "CLASSIFICATION_TYPE": "U", "NORAD_CAT_ID": 66572, "ELEMENT_SET_NO": 999, "REV_AT_EPOCH": 331, "BSTAR": -0.016309866, "MEAN_MOTION_DOT": -0.01918032, "MEAN_MOTION_DDOT": 0}, "tle": {"line1": "1 66572U 25268R   25338.33335648 -.01918032  00000+0 -16310-1 0  9992", "line2": "2 66572  42.9989 170.7455 0001549 267.8851 211.1654 15.71610464  3316"}}, "geometry": {"type": "Point", "coordinates": [82.77154719239684, -42.89025921021568]}}]}